NORAD_CAT_ID,OBJECT_NAME,OBJECT_TYPE,EPOCH,MEAN_MOTION,ECCENTRICITY,INCLINATION,RA_OF_ASC_NODE,ARG_OF_PERICENTER,MEAN_ANOMALY,BSTAR,MEAN_MOTION_DOT,MEAN_MOTION_DDOT,TLE_LINE0,TLE_LINE1,TLE_LINE2,SEMIMAJOR_AXIS,PERIOD,APOGEE,PERIGEE,DECAYED
51794.0,STARLINK-3573,PAYLOAD,2022-08-31 14:00:01,15.0886574,0.0001391,53.2163,2.6913,65.2864,333.1862,-0.0024031,-0.00038357,0.0,0 STARLINK-3573,1 51794U 22017AC  22243.58334491 -.00038357  00000-0 -24031-2 0  9998,2 51794  53.2163   2.6913 0001391  65.2864 333.1862 15.08865740  1308,6917.802,95.436,540.629,538.7040000000002,0.0
51794.0,STARLINK-3573,PAYLOAD,2022-08-31 22:00:00,15.08848532,0.0001425,53.2159,1.1947,63.2392,346.8409,-0.0020329999999999,-0.00032505,0.0,0 STARLINK-3573,1 51794U 22017AC  22243.91667824 -.00032505  00000-0 -20330-2 0  9991,2 51794  53.2159   1.1947 0001425  63.2392 346.8409 15.08848532 29810,6917.854,95.437,540.705,538.734,0.0
51794.0,STARLINK-3573,PAYLOAD,2022-09-01 12:00:00,15.08848493,0.0001443999999999,53.216,358.5759,68.8405,271.5137,-0.0015965999999999,-0.00025614,0.0,0 STARLINK-3573,1 51794U 22017AC  22244.50001157 -.00025614  00000-0 -15966-2 0  9990,2 51794  53.2160 358.5759 0001444  68.8405 271.5137 15.08848493 29895,6917.854,95.437,540.7180000000002,538.72,0.0
51794.0,STARLINK-3573,PAYLOAD,2022-09-01 14:00:01,15.08841516,0.0001495,53.2158,358.2023,66.2406,7.0773,-0.0010314,-0.00016666,0.0,0 STARLINK-3573,1 51794U 22017AC  22244.58335648 -.00016666  00000-0 -10314-2 0  9992,2 51794  53.2158 358.2023 0001495  66.2406   7.0773 15.08841516  1305,6917.876,95.437,540.775,538.707,0.0
51794.0,STARLINK-3573,PAYLOAD,2022-09-01 22:00:00,15.08856111,0.0001464,53.2156,356.7055,62.9517,21.8944,-0.0011921,-0.00019218,0.0,0 STARLINK-3573,1 51794U 22017AC  22244.91667824 -.00019218  00000-0 -11921-2 0  9994,2 51794  53.2156 356.7055 0001464  62.9517  21.8944 15.08856111  1304,6917.831,95.437,540.7090000000002,538.683,0.0
51794.0,STARLINK-3573,PAYLOAD,2022-09-02 04:00:00,15.08822233,0.0001357,53.2156,355.582,70.4794,293.0799,0.0032008,0.00050997,0.0,0 STARLINK-3573,1 51794U 22017AC  22245.16667824  .00050997  00000-0  32008-2 0  9998,2 51794  53.2156 355.5820 0001357  70.4794 293.0799 15.08822233 30001,6917.935,95.439,540.738,538.861,0.0
51794.0,STARLINK-3573,PAYLOAD,2022-09-02 12:00:02,15.08875246,0.0001416999999999,53.2157,354.0867,65.6719,309.5404,-0.0047561999999999,-0.00075265,0.0,0 STARLINK-3573,1 51794U 22017AC  22245.50002315 -.00075265  00000-0 -47562-2 0  9992,2 51794  53.2157 354.0867 0001417  65.6719 309.5404 15.08875246 30050,6917.773,95.435,540.618,538.6569999999998,0.0
51794.0,STARLINK-3573,PAYLOAD,2022-09-02 14:00:01,15.0885422,0.000145,53.2156,353.713,63.3415,44.7166,-0.003215,-0.00051112,0.0,0 STARLINK-3573,1 51794U 22017AC  22245.58334491 -.00051112  00000-0 -32150-2 0  9995,2 51794  53.2156 353.7130 0001450  63.3415  44.7166 15.08854220  1301,6917.837,95.437,540.705,538.6990000000002,0.0
51794.0,STARLINK-3573,PAYLOAD,2022-09-02 22:00:01,15.08843787,0.0001371,53.2156,352.216,59.2816,60.4275,-0.0014238,-0.00022878,0.0,0 STARLINK-3573,1 51794U 22017AC  22245.91668981 -.00022878  00000-0 -14238-2 0  9990,2 51794  53.2156 352.2160 0001371  59.2816  60.4275 15.08843787 30112,6917.869000000002,95.437,540.682,538.785,0.0
51794.0,STARLINK-3573,PAYLOAD,2022-09-03 12:00:00,15.08855148,0.0001431,53.2158,349.5973,62.0345,347.8951,-0.0014983,-0.00024064,0.0,0 STARLINK-3573,1 51794U 22017AC  22246.50001157 -.00024064  00000-0 -14983-2 0  9998,2 51794  53.2158 349.5973 0001431  62.0345 347.8951 15.08855148 30208,6917.834,95.437,540.689,538.7090000000002,0.0
51794.0,STARLINK-3573,PAYLOAD,2022-09-03 14:00:01,15.08848342,0.0001486999999999,53.2158,349.2236,60.1252,82.7074,-0.00094663,-0.00015325,0.0,0 STARLINK-3573,1 51794U 22017AC  22246.58334491 -.00015325  00000-0 -94663-3 0  9990,2 51794  53.2158 349.2236 0001487  60.1252  82.7074 15.08848342  1302,6917.855,95.437,540.749,538.691,0.0
51794.0,STARLINK-3573,PAYLOAD,2022-09-03 22:00:00,15.08861157,0.0001491,53.2159,347.7265,59.4346,95.0025,-0.0031573,-0.00050215,0.0,0 STARLINK-3573,1 51794U 22017AC  22246.91667824 -.00050215  00000-0 -31573-2 0  9993,2 51794  53.2159 347.7265 0001491  59.4346  95.0025 15.08861157  1300,6917.816,95.436,540.712,538.649,0.0
51794.0,STARLINK-3573,PAYLOAD,2022-09-04 06:00:00,15.08830952,0.0001473,53.2163,346.2289,67.757,98.2848,0.0022691,0.00036001,0.0,0 STARLINK-3573,1 51794U 22017AC  22247.25001157  .00036001  00000-0  22691-2 0  9998,2 51794  53.2163 346.2289 0001473  67.7570  98.2848 15.08830952 30316,6917.908,95.438,540.7919999999998,538.754,0.0
51794.0,STARLINK-3573,PAYLOAD,2022-09-04 14:00:01,15.0885585,0.0001573,53.2162,344.7341,59.7747,117.9251,-0.0019649999999999,-0.00031439,0.0,0 STARLINK-3573,1 51794U 22017AC  22247.58335648 -.00031439  00000-0 -19650-2 0  9992,2 51794  53.2162 344.7341 0001573  59.7747 117.9251 15.08855850  1303,6917.831999999999,95.437,540.785,538.609,0.0
51794.0,STARLINK-3573,PAYLOAD,2022-09-04 18:00:00,15.08853437,0.0001541999999999,53.2162,343.9861,55.419,308.0343,-0.00057359,-9.408e-05,0.0,0 STARLINK-3573,1 51794U 22017AC  22247.75001157 -.00009408  00000-0 -57359-3 0  9996,2 51794  53.2162 343.9861 0001542  55.4190 308.0343 15.08853437 30397,6917.839,95.437,540.771,538.638,0.0
51794.0,STARLINK-3573,PAYLOAD,2022-09-04 20:00:01,15.08867763,0.000154,53.2161,343.6115,55.5932,40.7595,-0.0032203,-0.00051214,0.0,0 STARLINK-3573,1 51794U 22017AC  22247.83334491 -.00051214  00000-0 -32203-2 0  9997,2 51794  53.2161 343.6115 0001540  55.5932  40.7595 15.08867763  1303,6917.795999999999,95.436,540.726,538.595,0.0
51794.0,STARLINK-3573,PAYLOAD,2022-09-05 14:00:01,15.08848501,0.000156,53.2166,340.2448,58.597,153.8543,-0.0012673,-0.00020405,0.0,0 STARLINK-3573,1 51794U 22017AC  22248.58334491 -.00020405  00000-0 -12673-2 0  9997,2 51794  53.2166 340.2448 0001560  58.5970 153.8543 15.08848501  1305,6917.854,95.437,540.799,538.64,0.0
51794.0,STARLINK-3573,PAYLOAD,2022-09-05 22:00:00,15.0885452,0.000147,53.2166,338.7474,59.2802,164.7668,-0.005538,-0.00087392,0.0,0 STARLINK-3573,1 51794U 22017AC  22248.91667824 -.00087392  00000-0 -55380-2 0  9993,2 51794  53.2166 338.7474 0001470  59.2802 164.7668 15.08854520 30565,6917.8359999999975,95.437,540.7180000000002,538.684,0.0
51794.0,STARLINK-3573,PAYLOAD,2022-09-06 04:00:00,15.08784491,0.0001441999999999,53.2167,337.6243,66.1081,76.6331,0.0027346,0.00043435,0.0,0 STARLINK-3573,1 51794U 22017AC  22249.16667824  .00043435  00000-0  27346-2 0  9990,2 51794  53.2167 337.6243 0001442  66.1081  76.6331 15.08784491 30605,6918.05,95.441,540.913,538.9169999999998,0.0
51794.0,STARLINK-3573,PAYLOAD,2022-09-06 14:00:01,15.08800201,0.0001598,53.2167,335.7558,58.9167,188.2612,0.0013575999999999,0.00021361,0.0,0 STARLINK-3573,1 51794U 22017AC  22249.58334491  .00021361  00000-0  13576-2 0  9991,2 51794  53.2167 335.7558 0001598  58.9167 188.2612 15.08800201  1304,6918.002,95.44,540.9730000000002,538.762,0.0
51794.0,STARLINK-3573,PAYLOAD,2022-09-06 20:00:01,15.08827686,0.000153,53.2164,334.6331,58.4251,107.4149,-0.00054492,-8.947e-05,0.0,0 STARLINK-3573,1 51794U 22017AC  22249.83334491 -.00008947  00000-0 -54492-3 0  9999,2 51794  53.2164 334.6331 0001530  58.4251 107.4149 15.08827686 30703,6917.918000000002,95.438,540.841,538.725,0.0
51794.0,STARLINK-3573,PAYLOAD,2022-09-06 22:00:00,15.08834428,0.0001474,53.2166,334.2585,60.8532,197.8789,-0.0014619,-0.00023475,0.0,0 STARLINK-3573,1 51794U 22017AC  22249.91667824 -.00023475  00000-0 -14619-2 0  9996,2 51794  53.2166 334.2585 0001474  60.8532 197.8789 15.08834428  1307,6917.897,95.438,540.7819999999998,538.743,0.0
51794.0,STARLINK-3573,PAYLOAD,2022-09-07 14:00:01,15.0882367,0.0001564999999999,53.2165,331.2671,59.1947,222.7011,0.0015579,0.00024582,0.0,0 STARLINK-3573,1 51794U 22017AC  22250.58334491  .00024582  00000-0  15579-2 0  9996,2 51794  53.2165 331.2671 0001565  59.1947 222.7011 15.08823670  1304,6917.93,95.439,540.878,538.7130000000002,0.0
51794.0,STARLINK-3573,PAYLOAD,2022-09-07 20:00:01,15.08854373,0.0001506999999999,53.216,330.1441,59.389,141.2529,-0.0011764,-0.00018969,0.0,0 STARLINK-3573,1 51794U 22017AC  22250.83335648 -.00018969  00000-0 -11764-2 0  9995,2 51794  53.2160 330.1441 0001507  59.3890 141.2529 15.08854373 30852,6917.8359999999975,95.437,540.744,538.659,0.0
51794.0,STARLINK-3573,PAYLOAD,2022-09-07 22:00:00,15.08855502,0.0001468,53.2162,329.7696,61.7223,231.7575,-0.0014599,-0.00023457,0.0,0 STARLINK-3573,1 51794U 22017AC  22250.91667824 -.00023457  00000-0 -14599-2 0  9995,2 51794  53.2162 329.7696 0001468  61.7223 231.7575 15.08855502  1302,6917.833000000001,95.437,540.714,538.682,0.0
51794.0,STARLINK-3573,PAYLOAD,2022-09-08 14:00:01,15.08818959,0.0001675999999999,53.216,326.7783,61.1187,255.5787,0.0019279,0.0003051,0.0,0 STARLINK-3573,1 51794U 22017AC  22251.58334491  .00030510  00000-0  19279-2 0  9996,2 51794  53.2160 326.7783 0001676  61.1187 255.5787 15.08818959  1302,6917.945,95.439,540.969,538.65,0.0
51794.0,STARLINK-3573,PAYLOAD,2022-09-08 22:00:00,15.08857817,0.000155,53.2156,325.2806,63.2466,265.0375,-0.0016422,-0.00026341,0.0,0 STARLINK-3573,1 51794U 22017AC  22251.91667824 -.00026341  00000-0 -16422-2 0  9998,2 51794  53.2156 325.2806 0001550  63.2466 265.0375 15.08857817 31017,6917.826,95.436,540.763,538.619,0.0
51794.0,STARLINK-3573,PAYLOAD,2022-09-09 14:00:01,15.08823626,0.000158,53.2154,322.2893,57.5602,293.9324,0.0017507999999999,0.00027673,0.0,0 STARLINK-3573,1 51794U 22017AC  22252.58334491  .00027673  00000-0  17508-2 0  9996,2 51794  53.2154 322.2893 0001580  57.5602 293.9324 15.08823626 31115,6917.93,95.439,540.888,538.702,0.0
51794.0,STARLINK-3573,PAYLOAD,2022-09-09 22:00:00,15.08841178,0.0001435,53.2153,320.7913,58.8366,304.2476,-0.0021613,-0.00034522,0.0,0 STARLINK-3573,1 51794U 22017AC  22252.91667824 -.00034522  00000-0 -21613-2 0  9997,2 51794  53.2153 320.7913 0001435  58.8366 304.2476 15.08841178  1304,6917.877,95.437,540.735,538.749,0.0
